{
  "type": "FeatureCollection",
  "features": [
    {
      "type": "Feature",
      "properties": {
        "norad_id": 35616,
        "name": "IRIDIUM 33 DEB",
        "group": "iridium-33-debris",
        "lat": -76.4618544561268,
        "lon": -176.82677322055625,
        "alt_km": 630.046379762085,
        "timestamp": "2025-12-08T05:48:09.419071+00:00",
        "meta_object_name": "IRIDIUM 33 DEB",
        "meta_object_id": "1997-051QN",
        "meta_epoch": "2025-12-06T07:15:38.847744",
        "meta_mean_motion": 14.81564916,
        "meta_eccentricity": 0.00091957,
        "meta_inclination": 86.3542,
        "meta_ra_of_asc_node": 348.7026,
        "meta_arg_of_pericenter": 186.8662,
        "meta_mean_anomaly": 173.2436,
        "meta_ephemeris_type": 0,
        "meta_classification_type": "U",
        "meta_norad_cat_id": 35616,
        "meta_element_set_no": 999,
        "meta_rev_at_epoch": 87479,
        "meta_bstar": 0.0030438731,
        "meta_mean_motion_dot": 0.00023991,
        "meta_mean_motion_ddot": 0,
        "tle_line1": "1 35616U 97051QN  25340.30253296  .00023991  00000+0  30439-2 0  9991",
        "tle_line2": "2 35616  86.3542 348.7026 0009195 186.8662 173.2436 14.81564916874798"
      },
      "geometry": {
        "type": "Point",
        "coordinates": [
          -176.82677322055625,
          -76.4618544561268
        ]
      }
    },
    {
      "type": "Feature",
      "properties": {
        "norad_id": 35618,
        "name": "IRIDIUM 33 DEB",
        "group": "iridium-33-debris",
        "lat": 40.94806658236899,
        "lon": 172.28525103216415,
        "alt_km": 719.5750716646853,
        "timestamp": "2025-12-08T05:48:09.419080+00:00",
        "meta_object_name": "IRIDIUM 33 DEB",
        "meta_object_id": "1997-051QQ",
        "meta_epoch": "2025-12-05T07:42:53.148672",
        "meta_mean_motion": 14.52258119,
        "meta_eccentricity": 0.00302089,
        "meta_inclination": 86.3407,
        "meta_ra_of_asc_node": 356.7447,
        "meta_arg_of_pericenter": 46.3254,
        "meta_mean_anomaly": 314.0448,
        "meta_ephemeris_type": 0,
        "meta_classification_type": "U",
        "meta_norad_cat_id": 35618,
        "meta_element_set_no": 999,
        "meta_rev_at_epoch": 65286,
        "meta_bstar": 0.00091388234,
        "meta_mean_motion_dot": 3.753e-05,
        "meta_mean_motion_ddot": 0,
        "tle_line1": "1 35618U 97051QQ  25339.32144848  .00003753  00000+0  91388-3 0  9990",
        "tle_line2": "2 35618  86.3407 356.7447 0030208  46.3254 314.0448 14.52258119652865"
      },
      "geometry": {
        "type": "Point",
        "coordinates": [
          172.28525103216415,
          40.94806658236899
        ]
      }
    },
    {
      "type": "Feature",
      "properties": {
        "norad_id": 35620,
        "name": "IRIDIUM 33 DEB",
        "group": "iridium-33-debris",
        "lat": -5.266922895017507,
        "lon": -140.98251624156887,
        "alt_km": 751.9957640801795,
        "timestamp": "2025-12-08T05:48:09.419090+00:00",
        "meta_object_name": "IRIDIUM 33 DEB",
        "meta_object_id": "1997-051QS",
        "meta_epoch": "2025-12-07T09:47:01.236480",
        "meta_mean_motion": 14.37772591,
        "meta_eccentricity": 0.0143262,
        "meta_inclination": 86.3889,
        "meta_ra_of_asc_node": 219.7026,
        "meta_arg_of_pericenter": 276.5805,
        "meta_mean_anomaly": 81.9102,
        "meta_ephemeris_type": 0,
        "meta_classification_type": "U",
        "meta_norad_cat_id": 35620,
        "meta_element_set_no": 999,
        "meta_rev_at_epoch": 59889,
        "meta_bstar": 0.0083170941,
        "meta_mean_motion_dot": 0.00028295,
        "meta_mean_motion_ddot": 0,
        "tle_line1": "1 35620U 97051QS  25341.40765320  .00028295  00000+0  83171-2 0  9997",
        "tle_line2": "2 35620  86.3889 219.7026 0143262 276.5805  81.9102 14.37772591598894"
      },
      "geometry": {
        "type": "Point",
        "coordinates": [
          -140.98251624156887,
          -5.266922895017507
        ]
      }
    },
    {
      "type": "Feature",
      "properties": {
        "norad_id": 35622,
        "name": "IRIDIUM 33 DEB",
        "group": "iridium-33-debris",
        "lat": 84.93326282642951,
        "lon": -45.70694289597234,
        "alt_km": 548.1873015234514,
        "timestamp": "2025-12-08T05:48:09.419100+00:00",
        "meta_object_name": "IRIDIUM 33 DEB",
        "meta_object_id": "1997-051QU",
        "meta_epoch": "2025-12-07T06:08:10.382208",
        "meta_mean_motion": 15.0368423,
        "meta_eccentricity": 0.00091825,
        "meta_inclination": 86.2049,
        "meta_ra_of_asc_node": 266.3018,
        "meta_arg_of_pericenter": 353.8818,
        "meta_mean_anomaly": 157.8722,
        "meta_ephemeris_type": 0,
        "meta_classification_type": "U",
        "meta_norad_cat_id": 35622,
        "meta_element_set_no": 999,
        "meta_rev_at_epoch": 87277,
        "meta_bstar": 0.0074565803,
        "meta_mean_motion_dot": 0.00103587,
        "meta_mean_motion_ddot": 0,
        "tle_line1": "1 35622U 97051QU  25341.25567572  .00103587  00000+0  74566-2 0  9997",
        "tle_line2": "2 35622  86.2049 266.3018 0009182 353.8818 157.8722 15.03684230872776"
      },
      "geometry": {
        "type": "Point",
        "coordinates": [
          -45.70694289597234,
          84.93326282642951
        ]
      }
    },
    {
      "type": "Feature",
      "properties": {
        "norad_id": 35628,
        "name": "IRIDIUM 33 DEB",
        "group": "iridium-33-debris",
        "lat": 30.124461257578528,
        "lon": -171.03573941380682,
        "alt_km": 674.5507564681602,
        "timestamp": "2025-12-08T05:48:09.419111+00:00",
        "meta_object_name": "IRIDIUM 33 DEB",
        "meta_object_id": "1997-051RA",
        "meta_epoch": "2025-12-04T09:28:36.488064",
        "meta_mean_motion": 14.67394134,
        "meta_eccentricity": 0.001144,
        "meta_inclination": 86.3576,
        "meta_ra_of_asc_node": 12.797,
        "meta_arg_of_pericenter": 12.0998,
        "meta_mean_anomaly": 348.0488,
        "meta_ephemeris_type": 0,
        "meta_classification_type": "U",
        "meta_norad_cat_id": 35628,
        "meta_element_set_no": 999,
        "meta_rev_at_epoch": 86324,
        "meta_bstar": 0.0032445,
        "meta_mean_motion_dot": 0.00018408,
        "meta_mean_motion_ddot": 0,
        "tle_line1": "1 35628U 97051RA  25338.39486676  .00018408  00000+0  32445-2 0  9996",
        "tle_line2": "2 35628  86.3576  12.7970 0011440  12.0998 348.0488 14.67394134863246"
      },
      "geometry": {
        "type": "Point",
        "coordinates": [
          -171.03573941380682,
          30.124461257578528
        ]
      }
    },
    {
      "type": "Feature",
      "properties": {
        "norad_id": 35631,
        "name": "IRIDIUM 33 DEB",
        "group": "iridium-33-debris",
        "lat": 12.106229757151933,
        "lon": 23.69386033927672,
        "alt_km": 742.2014466152295,
        "timestamp": "2025-12-08T05:48:09.419132+00:00",
        "meta_object_name": "IRIDIUM 33 DEB",
        "meta_object_id": "1997-051RD",
        "meta_epoch": "2025-12-06T21:23:47.071392",
        "meta_mean_motion": 14.47286545,
        "meta_eccentricity": 0.00185223,
        "meta_inclination": 86.3689,
        "meta_ra_of_asc_node": 23.4943,
        "meta_arg_of_pericenter": 135.5581,
        "meta_mean_anomaly": 46.1978,
        "meta_ephemeris_type": 0,
        "meta_classification_type": "U",
        "meta_norad_cat_id": 35631,
        "meta_element_set_no": 999,
        "meta_rev_at_epoch": 87112,
        "meta_bstar": 0.00062002851,
        "meta_mean_motion_dot": 2.292e-05,
        "meta_mean_motion_ddot": 0,
        "tle_line1": "1 35631U 97051RD  25340.89151703  .00002292  00000+0  62003-3 0  9996",
        "tle_line2": "2 35631  86.3689  23.4943 0018522 135.5581  46.1978 14.47286545871121"
      },
      "geometry": {
        "type": "Point",
        "coordinates": [
          23.69386033927672,
          12.106229757151933
        ]
      }
    },
    {
      "type": "Feature",
      "properties": {
        "norad_id": 35680,
        "name": "IRIDIUM 33 DEB",
        "group": "iridium-33-debris",
        "lat": 52.15400745879186,
        "lon": 28.54856386457563,
        "alt_km": 869.8851824156136,
        "timestamp": "2025-12-08T05:48:09.419145+00:00",
        "meta_object_name": "IRIDIUM 33 DEB",
        "meta_object_id": "1997-051RJ",
        "meta_epoch": "2025-12-07T09:19:47.246592",
        "meta_mean_motion": 14.20776466,
        "meta_eccentricity": 0.01503971,
        "meta_inclination": 86.1018,
        "meta_ra_of_asc_node": 23.8914,
        "meta_arg_of_pericenter": 295.6462,
        "meta_mean_anomaly": 74.8204,
        "meta_ephemeris_type": 0,
        "meta_classification_type": "U",
        "meta_norad_cat_id": 35680,
        "meta_element_set_no": 999,
        "meta_rev_at_epoch": 60625,
        "meta_bstar": 0.0056071361,
        "meta_mean_motion_dot": 0.00013594,
        "meta_mean_motion_ddot": 0,
        "tle_line1": "1 35680U 97051RJ  25341.38874128  .00013594  00000+0  56071-2 0  9992",
        "tle_line2": "2 35680  86.1018  23.8914 0150397 295.6462  74.8204 14.20776466606251"
      },
      "geometry": {
        "type": "Point",
        "coordinates": [
          28.54856386457563,
          52.15400745879186
        ]
      }
    }
  ]
}